{"type": "FeatureCollection", "features": [{"type": "Feature", "geometry": {"type": "Polygon", "coordinates": [[[2.14918, 41.38218], [2.15026, 41.38218], [2.15026, 41.38326], [2.14918, 41.38326], [2.14918, 41.38218]]]}, "properties": {"height": 24.0, "name": ""}}, {"type": "Feature", "geometry": {"type": "Polygon", "coordinates": [[[2.1504399999999997, 41.38218], [2.1515199999999997, 41.38218], [2.1515199999999997, 41.38326], [2.1504399999999997, 41.38326], [2.1504399999999997, 41.38218]]]}, "properties": {"height": 21.0, "name": ""}}, {"type": "Feature", "geometry": {"type": "Polygon", "coordinates": [[[2.1516999999999995, 41.38218], [2.1527799999999995, 41.38218], [2.1527799999999995, 41.38326], [2.1516999999999995, 41.38326], [2.1516999999999995, 41.38218]]]}, "properties": {"height": 18.0, "name": ""}}, {"type": "Feature", "geometry": {"type": "Polygon", "coordinates": [[[2.1529599999999993, 41.38218], [2.1540399999999993, 41.38218], [2.1540399999999993, 41.38326], [2.1529599999999993, 41.38326], [2.1529599999999993, 41.38218]]]}, "properties": {"height": 21.0, "name": ""}}, {"type": "Feature", "geometry": {"type": "Polygon", "coordinates": [[[2.154219999999999, 41.38218], [2.155299999999999, 41.38218], [2.155299999999999, 41.38326], [2.154219999999999, 41.38326], [2.154219999999999, 41.38218]]]}, "properties": {"height": 21.0, "name": ""}}, {"type": "Feature", "geometry": {"type": "Polygon", "coordinates": [[[2.155479999999999, 41.38218], [2.156559999999999, 41.38218], [2.156559999999999, 41.38326], [2.155479999999999, 41.38326], [2.155479999999999, 41.38218]]]}, "properties": {"height": 21.0, "name": ""}}, {"type": "Feature", "geometry": {"type": "Polygon", "coordinates": [[[2.1567399999999988, 41.38218], [2.1578199999999987, 41.38218], [2.1578199999999987, 41.38326], [2.1567399999999988, 41.38326], [2.1567399999999988, 41.38218]]]}, "properties": {"height": 18.0, "name": ""}}, {"type": "Feature", "geometry": {"type": "Polygon", "coordinates": [[[2.1579999999999986, 41.38218], [2.1590799999999986, 41.38218], [2.1590799999999986, 41.38326], [2.1579999999999986, 41.38326], [2.1579999999999986, 41.38218]]]}, "properties": {"height": 24.0, "name": ""}}, {"type": "Feature", "geometry": {"type": "Polygon", "coordinates": [[[2.1592599999999984, 41.38218], [2.1603399999999984, 41.38218], [2.1603399999999984, 41.38326], [2.1592599999999984, 41.38326], [2.1592599999999984, 41.38218]]]}, "properties": {"height": 21.0, "name": ""}}, {"type": "Feature", "geometry": {"type": "Polygon", "coordinates": [[[2.160519999999998, 41.38218], [2.161599999999998, 41.38218], [2.161599999999998, 41.38326], [2.160519999999998, 41.38326], [2.160519999999998, 41.38218]]]}, "properties": {"height": 18.0, "name": ""}}, {"type": "Feature", "geometry": {"type": "Polygon", "coordinates": [[[2.161779999999998, 41.38218], [2.162859999999998, 41.38218], [2.162859999999998, 41.38326], [2.161779999999998, 41.38326], [2.161779999999998, 41.38218]]]}, "properties": {"height": 21.0, "name": ""}}, {"type": "Feature", "geometry": {"type": "Polygon", "coordinates": [[[2.163039999999998, 41.38218], [2.164119999999998, 41.38218], [2.164119999999998, 41.38326], [2.163039999999998, 41.38326], [2.163039999999998, 41.38218]]]}, "properties": {"height": 24.0, "name": ""}}, {"type": "Feature", "geometry": {"type": "Polygon", "coordinates": [[[2.1642999999999977, 41.38218], [2.1653799999999976, 41.38218], [2.1653799999999976, 41.38326], [2.1642999999999977, 41.38326], [2.1642999999999977, 41.38218]]]}, "properties": {"height": 24.0, "name": ""}}, {"type": "Feature", "geometry": {"type": "Polygon", "coordinates": [[[2.1655599999999975, 41.38218], [2.1666399999999975, 41.38218], [2.1666399999999975, 41.38326], [2.1655599999999975, 41.38326], [2.1655599999999975, 41.38218]]]}, "properties": {"height": 21.0, "name": ""}}, {"type": "Feature", "geometry": {"type": "Polygon", "coordinates": [[[2.1668199999999973, 41.38218], [2.1678999999999973, 41.38218], [2.1678999999999973, 41.38326], [2.1668199999999973, 41.38326], [2.1668199999999973, 41.38218]]]}, "properties": {"height": 21.0, "name": ""}}, {"type": "Feature", "geometry": {"type": "Polygon", "coordinates": [[[2.168079999999997, 41.38218], [2.169159999999997, 41.38218], [2.169159999999997, 41.38326], [2.168079999999997, 41.38326], [2.168079999999997, 41.38218]]]}, "properties": {"height": 24.0, "name": ""}}, {"type": "Feature", "geometry": {"type": "Polygon", "coordinates": [[[2.14918, 41.38344], [2.15026, 41.38344], [2.15026, 41.38452], [2.14918, 41.38452], [2.14918, 41.38344]]]}, "properties": {"height": 18.0, "name": ""}}, {"type": "Feature", "geometry": {"type": "Polygon", "coordinates": [[[2.1504399999999997, 41.38344], [2.1515199999999997, 41.38344], [2.1515199999999997, 41.38452], [2.1504399999999997, 41.38452], [2.1504399999999997, 41.38344]]]}, "properties": {"height": 21.0, "name": ""}}, {"type": "Feature", "geometry": {"type": "Polygon", "coordinates": [[[2.1516999999999995, 41.38344], [2.1527799999999995, 41.38344], [2.1527799999999995, 41.38452], [2.1516999999999995, 41.38452], [2.1516999999999995, 41.38344]]]}, "properties": {"height": 21.0, "name": ""}}, {"type": "Feature", "geometry": {"type": "Polygon", "coordinates": [[[2.1529599999999993, 41.38344], [2.1540399999999993, 41.38344], [2.1540399999999993, 41.38452], [2.1529599999999993, 41.38452], [2.1529599999999993, 41.38344]]]}, "properties": {"height": 24.0, "name": ""}}, {"type": "Feature", "geometry": {"type": "Polygon", "coordinates": [[[2.154219999999999, 41.38344], [2.155299999999999, 41.38344], [2.155299999999999, 41.38452], [2.154219999999999, 41.38452], [2.154219999999999, 41.38344]]]}, "properties": {"height": 24.0, "name": ""}}, {"type": "Feature", "geometry": {"type": "Polygon", "coordinates": [[[2.155479999999999, 41.38344], [2.156559999999999, 41.38344], [2.156559999999999, 41.38452], [2.155479999999999, 41.38452], [2.155479999999999, 41.38344]]]}, "properties": {"height": 24.0, "name": ""}}, {"type": "Feature", "geometry": {"type": "Polygon", "coordinates": [[[2.1567399999999988, 41.38344], [2.1578199999999987, 41.38344], [2.1578199999999987, 41.38452], [2.1567399999999988, 41.38452], [2.1567399999999988, 41.38344]]]}, "properties": {"height": 18.0, "name": ""}}, {"type": "Feature", "geometry": {"type": "Polygon", "coordinates": [[[2.1579999999999986, 41.38344], [2.1590799999999986, 41.38344], [2.1590799999999986, 41.38452], [2.1579999999999986, 41.38452], [2.1579999999999986, 41.38344]]]}, "properties": {"height": 24.0, "name": ""}}, {"type": "Feature", "geometry": {"type": "Polygon", "coordinates": [[[2.1592599999999984, 41.38344], [2.1603399999999984, 41.38344], [2.1603399999999984, 41.38452], [2.1592599999999984, 41.38452], [2.1592599999999984, 41.38344]]]}, "properties": {"height": 18.0, "name": ""}}, {"type": "Feature", "geometry": {"type": "Polygon", "coordinates": [[[2.160519999999998, 41.38344], [2.161599999999998, 41.38344], [2.161599999999998, 41.38452], [2.160519999999998, 41.38452], [2.160519999999998, 41.38344]]]}, "properties": {"height": 24.0, "name": ""}}, {"type": "Feature", "geometry": {"type": "Polygon", "coordinates": [[[2.161779999999998, 41.38344], [2.162859999999998, 41.38344], [2.162859999999998, 41.38452], [2.161779999999998, 41.38452], [2.161779999999998, 41.38344]]]}, "properties": {"height": 18.0, "name": ""}}, {"type": "Feature", "geometry": {"type": "Polygon", "coordinates": [[[2.163039999999998, 41.38344], [2.164119999999998, 41.38344], [2.164119999999998, 41.38452], [2.163039999999998, 41.38452], [2.163039999999998, 41.38344]]]}, "properties": {"height": 18.0, "name": ""}}, {"type": "Feature", "geometry": {"type": "Polygon", "coordinates": [[[2.1642999999999977, 41.38344], [2.1653799999999976, 41.38344], [2.1653799999999976, 41.38452], [2.1642999999999977, 41.38452], [2.1642999999999977, 41.38344]]]}, "properties": {"height": 18.0, "name": ""}}, {"type": "Feature", "geometry": {"type": "Polygon", "coordinates": [[[2.1655599999999975, 41.38344], [2.1666399999999975, 41.38344], [2.1666399999999975, 41.38452], [2.1655599999999975, 41.38452], [2.1655599999999975, 41.38344]]]}, "properties": {"height": 24.0, "name": ""}}, {"type": "Feature", "geometry": {"type": "Polygon", "coordinates": [[[2.1668199999999973, 41.38344], [2.1678999999999973, 41.38344], [2.1678999999999973, 41.38452], [2.1668199999999973, 41.38452], [2.1668199999999973, 41.38344]]]}, "properties": {"height": 18.0, "name": ""}}, {"type": "Feature", "geometry": {"type": "Polygon", "coordinates": [[[2.168079999999997, 41.38344], [2.169159999999997, 41.38344], [2.169159999999997, 41.38452], [2.168079999999997, 41.38452], [2.168079999999997, 41.38344]]]}, "properties": {"height": 18.0, "name": ""}}, {"type": "Feature", "geometry": {"type": "Polygon", "coordinates": [[[2.14918, 41.3847], [2.15026, 41.3847], [2.15026, 41.385780000000004], [2.14918, 41.385780000000004], [2.14918, 41.3847]]]}, "properties": {"height": 24.0, "name": ""}}, {"type": "Feature", "geometry": {"type": "Polygon", "coordinates": [[[2.1504399999999997, 41.3847], [2.1515199999999997, 41.3847], [2.1515199999999997, 41.385780000000004], [2.1504399999999997, 41.385780000000004], [2.1504399999999997, 41.3847]]]}, "properties": {"height": 21.0, "name": ""}}, {"type": "Feature", "geometry": {"type": "Polygon", "coordinates": [[[2.1516999999999995, 41.3847], [2.1527799999999995, 41.3847], [2.1527799999999995, 41.385780000000004], [2.1516999999999995, 41.385780000000004], [2.1516999999999995, 41.3847]]]}, "properties": {"height": 18.0, "name": ""}}, {"type": "Feature", "geometry": {"type": "Polygon", "coordinates": [[[2.1529599999999993, 41.3847], [2.1540399999999993, 41.3847], [2.1540399999999993, 41.385780000000004], [2.1529599999999993, 41.385780000000004], [2.1529599999999993, 41.3847]]]}, "properties": {"height": 18.0, "name": ""}}, {"type": "Feature", "geometry": {"type": "Polygon", "coordinates": [[[2.154219999999999, 41.3847], [2.155299999999999, 41.3847], [2.155299999999999, 41.385780000000004], [2.154219999999999, 41.385780000000004], [2.154219999999999, 41.3847]]]}, "properties": {"height": 18.0, "name": ""}}, {"type": "Feature", "geometry": {"type": "Polygon", "coordinates": [[[2.155479999999999, 41.3847], [2.156559999999999, 41.3847], [2.156559999999999, 41.385780000000004], [2.155479999999999, 41.385780000000004], [2.155479999999999, 41.3847]]]}, "properties": {"height": 21.0, "name": ""}}, {"type": "Feature", "geometry": {"type": "Polygon", "coordinates": [[[2.1567399999999988, 41.3847], [2.1578199999999987, 41.3847], [2.1578199999999987, 41.385780000000004], [2.1567399999999988, 41.385780000000004], [2.1567399999999988, 41.3847]]]}, "properties": {"height": 18.0, "name": ""}}, {"type": "Feature", "geometry": {"type": "Polygon", "coordinates": [[[2.1579999999999986, 41.3847], [2.1590799999999986, 41.3847], [2.1590799999999986, 41.385780000000004], [2.1579999999999986, 41.385780000000004], [2.1579999999999986, 41.3847]]]}, "properties": {"height": 18.0, "name": ""}}, {"type": "Feature", "geometry": {"type": "Polygon", "coordinates": [[[2.1592599999999984, 41.3847], [2.1603399999999984, 41.3847], [2.1603399999999984, 41.385780000000004], [2.1592599999999984, 41.385780000000004], [2.1592599999999984, 41.3847]]]}, "properties": {"height": 18.0, "name": ""}}, {"type": "Feature", "geometry": {"type": "Polygon", "coordinates": [[[2.160519999999998, 41.3847], [2.161599999999998, 41.3847], [2.161599999999998, 41.385780000000004], [2.160519999999998, 41.385780000000004], [2.160519999999998, 41.3847]]]}, "properties": {"height": 24.0, "name": ""}}, {"type": "Feature", "geometry": {"type": "Polygon", "coordinates": [[[2.161779999999998, 41.3847], [2.162859999999998, 41.3847], [2.162859999999998, 41.385780000000004], [2.161779999999998, 41.385780000000004], [2.161779999999998, 41.3847]]]}, "properties": {"height": 18.0, "name": ""}}, {"type": "Feature", "geometry": {"type": "Polygon", "coordinates": [[[2.163039999999998, 41.3847], [2.164119999999998, 41.3847], [2.164119999999998, 41.385780000000004], [2.163039999999998, 41.385780000000004], [2.163039999999998, 41.3847]]]}, "properties": {"height": 18.0, "name": ""}}, {"type": "Feature", "geometry": {"type": "Polygon", "coordinates": [[[2.1642999999999977, 41.3847], [2.1653799999999976, 41.3847], [2.1653799999999976, 41.385780000000004], [2.1642999999999977, 41.385780000000004], [2.1642999999999977, 41.3847]]]}, "properties": {"height": 24.0, "name": ""}}, {"type": "Feature", "geometry": {"type": "Polygon", "coordinates": [[[2.1655599999999975, 41.3847], [2.1666399999999975, 41.3847], [2.1666399999999975, 41.385780000000004], [2.1655599999999975, 41.385780000000004], [2.1655599999999975, 41.3847]]]}, "properties": {"height": 24.0, "name": ""}}, {"type": "Feature", "geometry": {"type": "Polygon", "coordinates": [[[2.1668199999999973, 41.3847], [2.1678999999999973, 41.3847], [2.1678999999999973, 41.385780000000004], [2.1668199999999973, 41.385780000000004], [2.1668199999999973, 41.3847]]]}, "properties": {"height": 24.0, "name": ""}}, {"type": "Feature", "geometry": {"type": "Polygon", "coordinates": [[[2.168079999999997, 41.3847], [2.169159999999997, 41.3847], [2.169159999999997, 41.385780000000004], [2.168079999999997, 41.385780000000004], [2.168079999999997, 41.3847]]]}, "properties": {"height": 21.0, "name": ""}}, {"type": "Feature", "geometry": {"type": "Polygon", "coordinates": [[[2.14918, 41.385960000000004], [2.15026, 41.385960000000004], [2.15026, 41.387040000000006], [2.14918, 41.387040000000006], [2.14918, 41.385960000000004]]]}, "properties": {"height": 24.0, "name": ""}}, {"type": "Feature", "geometry": {"type": "Polygon", "coordinates": [[[2.1504399999999997, 41.385960000000004], [2.1515199999999997, 41.385960000000004], [2.1515199999999997, 41.387040000000006], [2.1504399999999997, 41.387040000000006], [2.1504399999999997, 41.385960000000004]]]}, "properties": {"height": 24.0, "name": ""}}, {"type": "Feature", "geometry": {"type": "Polygon", "coordinates": [[[2.1516999999999995, 41.385960000000004], [2.1527799999999995, 41.385960000000004], [2.1527799999999995, 41.387040000000006], [2.1516999999999995, 41.387040000000006], [2.1516999999999995, 41.385960000000004]]]}, "properties": {"height": 18.0, "name": ""}}, {"type": "Feature", "geometry": {"type": "Polygon", "coordinates": [[[2.1529599999999993, 41.385960000000004], [2.1540399999999993, 41.385960000000004], [2.1540399999999993, 41.387040000000006], [2.1529599999999993, 41.387040000000006], [2.1529599999999993, 41.385960000000004]]]}, "properties": {"height": 18.0, "name": ""}}, {"type": "Feature", "geometry": {"type": "Polygon", "coordinates": [[[2.154219999999999, 41.385960000000004], [2.155299999999999, 41.385960000000004], [2.155299999999999, 41.387040000000006], [2.154219999999999, 41.387040000000006], [2.154219999999999, 41.385960000000004]]]}, "properties": {"height": 21.0, "name": ""}}, {"type": "Feature", "geometry": {"type": "Polygon", "coordinates": [[[2.155479999999999, 41.385960000000004], [2.156559999999999, 41.385960000000004], [2.156559999999999, 41.387040000000006], [2.155479999999999, 41.387040000000006], [2.155479999999999, 41.385960000000004]]]}, "properties": {"height": 21.0, "name": ""}}, {"type": "Feature", "geometry": {"type": "Polygon", "coordinates": [[[2.1567399999999988, 41.385960000000004], [2.1578199999999987, 41.385960000000004], [2.1578199999999987, 41.387040000000006], [2.1567399999999988, 41.387040000000006], [2.1567399999999988, 41.385960000000004]]]}, "properties": {"height": 18.0, "name": ""}}, {"type": "Feature", "geometry": {"type": "Polygon", "coordinates": [[[2.1579999999999986, 41.385960000000004], [2.1590799999999986, 41.385960000000004], [2.1590799999999986, 41.387040000000006], [2.1579999999999986, 41.387040000000006], [2.1579999999999986, 41.385960000000004]]]}, "properties": {"height": 18.0, "name": ""}}, {"type": "Feature", "geometry": {"type": "Polygon", "coordinates": [[[2.1592599999999984, 41.385960000000004], [2.1603399999999984, 41.385960000000004], [2.1603399999999984, 41.387040000000006], [2.1592599999999984, 41.387040000000006], [2.1592599999999984, 41.385960000000004]]]}, "properties": {"height": 24.0, "name": ""}}, {"type": "Feature", "geometry": {"type": "Polygon", "coordinates": [[[2.160519999999998, 41.385960000000004], [2.161599999999998, 41.385960000000004], [2.161599999999998, 41.387040000000006], [2.160519999999998, 41.387040000000006], [2.160519999999998, 41.385960000000004]]]}, "properties": {"height": 21.0, "name": ""}}, {"type": "Feature", "geometry": {"type": "Polygon", "coordinates": [[[2.161779999999998, 41.385960000000004], [2.162859999999998, 41.385960000000004], [2.162859999999998, 41.387040000000006], [2.161779999999998, 41.387040000000006], [2.161779999999998, 41.385960000000004]]]}, "properties": {"height": 24.0, "name": ""}}, {"type": "Feature", "geometry": {"type": "Polygon", "coordinates": [[[2.163039999999998, 41.385960000000004], [2.164119999999998, 41.385960000000004], [2.164119999999998, 41.387040000000006], [2.163039999999998, 41.387040000000006], [2.163039999999998, 41.385960000000004]]]}, "properties": {"height": 18.0, "name": ""}}, {"type": "Feature", "geometry": {"type": "Polygon", "coordinates": [[[2.1642999999999977, 41.385960000000004], [2.1653799999999976, 41.385960000000004], [2.1653799999999976, 41.387040000000006], [2.1642999999999977, 41.387040000000006], [2.1642999999999977, 41.385960000000004]]]}, "properties": {"height": 18.0, "name": ""}}, {"type": "Feature", "geometry": {"type": "Polygon", "coordinates": [[[2.1655599999999975, 41.385960000000004], [2.1666399999999975, 41.385960000000004], [2.1666399999999975, 41.387040000000006], [2.1655599999999975, 41.387040000000006], [2.1655599999999975, 41.385960000000004]]]}, "properties": {"height": 21.0, "name": ""}}, {"type": "Feature", "geometry": {"type": "Polygon", "coordinates": [[[2.1668199999999973, 41.385960000000004], [2.1678999999999973, 41.385960000000004], [2.1678999999999973, 41.387040000000006], [2.1668199999999973, 41.387040000000006], [2.1668199999999973, 41.385960000000004]]]}, "properties": {"height": 21.0, "name": ""}}, {"type": "Feature", "geometry": {"type": "Polygon", "coordinates": [[[2.168079999999997, 41.385960000000004], [2.169159999999997, 41.385960000000004], [2.169159999999997, 41.387040000000006], [2.168079999999997, 41.387040000000006], [2.168079999999997, 41.385960000000004]]]}, "properties": {"height": 21.0, "name": ""}}, {"type": "Feature", "geometry": {"type": "Polygon", "coordinates": [[[2.14918, 41.387220000000006], [2.15026, 41.387220000000006], [2.15026, 41.38830000000001], [2.14918, 41.38830000000001], [2.14918, 41.387220000000006]]]}, "properties": {"height": 21.0, "name": ""}}, {"type": "Feature", "geometry": {"type": "Polygon", "coordinates": [[[2.1504399999999997, 41.387220000000006], [2.1515199999999997, 41.387220000000006], [2.1515199999999997, 41.38830000000001], [2.1504399999999997, 41.38830000000001], [2.1504399999999997, 41.387220000000006]]]}, "properties": {"height": 21.0, "name": ""}}, {"type": "Feature", "geometry": {"type": "Polygon", "coordinates": [[[2.1516999999999995, 41.387220000000006], [2.1527799999999995, 41.387220000000006], [2.1527799999999995, 41.38830000000001], [2.1516999999999995, 41.38830000000001], [2.1516999999999995, 41.387220000000006]]]}, "properties": {"height": 18.0, "name": ""}}, {"type": "Feature", "geometry": {"type": "Polygon", "coordinates": [[[2.1529599999999993, 41.387220000000006], [2.1540399999999993, 41.387220000000006], [2.1540399999999993, 41.38830000000001], [2.1529599999999993, 41.38830000000001], [2.1529599999999993, 41.387220000000006]]]}, "properties": {"height": 24.0, "name": ""}}, {"type": "Feature", "geometry": {"type": "Polygon", "coordinates": [[[2.154219999999999, 41.387220000000006], [2.155299999999999, 41.387220000000006], [2.155299999999999, 41.38830000000001], [2.154219999999999, 41.38830000000001], [2.154219999999999, 41.387220000000006]]]}, "properties": {"height": 18.0, "name": ""}}, {"type": "Feature", "geometry": {"type": "Polygon", "coordinates": [[[2.155479999999999, 41.387220000000006], [2.156559999999999, 41.387220000000006], [2.156559999999999, 41.38830000000001], [2.155479999999999, 41.38830000000001], [2.155479999999999, 41.387220000000006]]]}, "properties": {"height": 21.0, "name": ""}}, {"type": "Feature", "geometry": {"type": "Polygon", "coordinates": [[[2.1567399999999988, 41.387220000000006], [2.1578199999999987, 41.387220000000006], [2.1578199999999987, 41.38830000000001], [2.1567399999999988, 41.38830000000001], [2.1567399999999988, 41.387220000000006]]]}, "properties": {"height": 21.0, "name": ""}}, {"type": "Feature", "geometry": {"type": "Polygon", "coordinates": [[[2.1579999999999986, 41.387220000000006], [2.1590799999999986, 41.387220000000006], [2.1590799999999986, 41.38830000000001], [2.1579999999999986, 41.38830000000001], [2.1579999999999986, 41.387220000000006]]]}, "properties": {"height": 24.0, "name": ""}}, {"type": "Feature", "geometry": {"type": "Polygon", "coordinates": [[[2.1592599999999984, 41.387220000000006], [2.1603399999999984, 41.387220000000006], [2.1603399999999984, 41.38830000000001], [2.1592599999999984, 41.38830000000001], [2.1592599999999984, 41.387220000000006]]]}, "properties": {"height": 21.0, "name": ""}}, {"type": "Feature", "geometry": {"type": "Polygon", "coordinates": [[[2.160519999999998, 41.387220000000006], [2.161599999999998, 41.387220000000006], [2.161599999999998, 41.38830000000001], [2.160519999999998, 41.38830000000001], [2.160519999999998, 41.387220000000006]]]}, "properties": {"height": 21.0, "name": ""}}, {"type": "Feature", "geometry": {"type": "Polygon", "coordinates": [[[2.161779999999998, 41.387220000000006], [2.162859999999998, 41.387220000000006], [2.162859999999998, 41.38830000000001], [2.161779999999998, 41.38830000000001], [2.161779999999998, 41.387220000000006]]]}, "properties": {"height": 18.0, "name": ""}}, {"type": "Feature", "geometry": {"type": "Polygon", "coordinates": [[[2.163039999999998, 41.387220000000006], [2.164119999999998, 41.387220000000006], [2.164119999999998, 41.38830000000001], [2.163039999999998, 41.38830000000001], [2.163039999999998, 41.387220000000006]]]}, "properties": {"height": 24.0, "name": ""}}, {"type": "Feature", "geometry": {"type": "Polygon", "coordinates": [[[2.1642999999999977, 41.387220000000006], [2.1653799999999976, 41.387220000000006], [2.1653799999999976, 41.38830000000001], [2.1642999999999977, 41.38830000000001], [2.1642999999999977, 41.387220000000006]]]}, "properties": {"height": 24.0, "name": ""}}, {"type": "Feature", "geometry": {"type": "Polygon", "coordinates": [[[2.1655599999999975, 41.387220000000006], [2.1666399999999975, 41.387220000000006], [2.1666399999999975, 41.38830000000001], [2.1655599999999975, 41.38830000000001], [2.1655599999999975, 41.387220000000006]]]}, "properties": {"height": 18.0, "name": ""}}, {"type": "Feature", "geometry": {"type": "Polygon", "coordinates": [[[2.1668199999999973, 41.387220000000006], [2.1678999999999973, 41.387220000000006], [2.1678999999999973, 41.38830000000001], [2.1668199999999973, 41.38830000000001], [2.1668199999999973, 41.387220000000006]]]}, "properties": {"height": 18.0, "name": ""}}, {"type": "Feature", "geometry": {"type": "Polygon", "coordinates": [[[2.168079999999997, 41.387220000000006], [2.169159999999997, 41.387220000000006], [2.169159999999997, 41.38830000000001], [2.168079999999997, 41.38830000000001], [2.168079999999997, 41.387220000000006]]]}, "properties": {"height": 21.0, "name": ""}}, {"type": "Feature", "geometry": {"type": "Polygon", "coordinates": [[[2.14918, 41.38848000000001], [2.15026, 41.38848000000001], [2.15026, 41.38956000000001], [2.14918, 41.38956000000001], [2.14918, 41.38848000000001]]]}, "properties": {"height": 21.0, "name": ""}}, {"type": "Feature", "geometry": {"type": "Polygon", "coordinates": [[[2.1504399999999997, 41.38848000000001], [2.1515199999999997, 41.38848000000001], [2.1515199999999997, 41.38956000000001], [2.1504399999999997, 41.38956000000001], [2.1504399999999997, 41.38848000000001]]]}, "properties": {"height": 21.0, "name": ""}}, {"type": "Feature", "geometry": {"type": "Polygon", "coordinates": [[[2.1516999999999995, 41.38848000000001], [2.1527799999999995, 41.38848000000001], [2.1527799999999995, 41.38956000000001], [2.1516999999999995, 41.38956000000001], [2.1516999999999995, 41.38848000000001]]]}, "properties": {"height": 18.0, "name": ""}}, {"type": "Feature", "geometry": {"type": "Polygon", "coordinates": [[[2.1529599999999993, 41.38848000000001], [2.1540399999999993, 41.38848000000001], [2.1540399999999993, 41.38956000000001], [2.1529599999999993, 41.38956000000001], [2.1529599999999993, 41.38848000000001]]]}, "properties": {"height": 24.0, "name": ""}}, {"type": "Feature", "geometry": {"type": "Polygon", "coordinates": [[[2.154219999999999, 41.38848000000001], [2.155299999999999, 41.38848000000001], [2.155299999999999, 41.38956000000001], [2.154219999999999, 41.38956000000001], [2.154219999999999, 41.38848000000001]]]}, "properties": {"height": 21.0, "name": ""}}, {"type": "Feature", "geometry": {"type": "Polygon", "coordinates": [[[2.155479999999999, 41.38848000000001], [2.156559999999999, 41.38848000000001], [2.156559999999999, 41.38956000000001], [2.155479999999999, 41.38956000000001], [2.155479999999999, 41.38848000000001]]]}, "properties": {"height": 18.0, "name": ""}}, {"type": "Feature", "geometry": {"type": "Polygon", "coordinates": [[[2.1567399999999988, 41.38848000000001], [2.1578199999999987, 41.38848000000001], [2.1578199999999987, 41.38956000000001], [2.1567399999999988, 41.38956000000001], [2.1567399999999988, 41.38848000000001]]]}, "properties": {"height": 21.0, "name": ""}}, {"type": "Feature", "geometry": {"type": "Polygon", "coordinates": [[[2.1579999999999986, 41.38848000000001], [2.1590799999999986, 41.38848000000001], [2.1590799999999986, 41.38956000000001], [2.1579999999999986, 41.38956000000001], [2.1579999999999986, 41.38848000000001]]]}, "properties": {"height": 24.0, "name": ""}}, {"type": "Feature", "geometry": {"type": "Polygon", "coordinates": [[[2.1592599999999984, 41.38848000000001], [2.1603399999999984, 41.38848000000001], [2.1603399999999984, 41.38956000000001], [2.1592599999999984, 41.38956000000001], [2.1592599999999984, 41.38848000000001]]]}, "properties": {"height": 18.0, "name": ""}}, {"type": "Feature", "geometry": {"type": "Polygon", "coordinates": [[[2.160519999999998, 41.38848000000001], [2.161599999999998, 41.38848000000001], [2.161599999999998, 41.38956000000001], [2.160519999999998, 41.38956000000001], [2.160519999999998, 41.38848000000001]]]}, "properties": {"height": 21.0, "name": ""}}, {"type": "Feature", "geometry": {"type": "Polygon", "coordinates": [[[2.161779999999998, 41.38848000000001], [2.162859999999998, 41.38848000000001], [2.162859999999998, 41.38956000000001], [2.161779999999998, 41.38956000000001], [2.161779999999998, 41.38848000000001]]]}, "properties": {"height": 24.0, "name": ""}}, {"type": "Feature", "geometry": {"type": "Polygon", "coordinates": [[[2.163039999999998, 41.38848000000001], [2.164119999999998, 41.38848000000001], [2.164119999999998, 41.38956000000001], [2.163039999999998, 41.38956000000001], [2.163039999999998, 41.38848000000001]]]}, "properties": {"height": 18.0, "name": ""}}, {"type": "Feature", "geometry": {"type": "Polygon", "coordinates": [[[2.1642999999999977, 41.38848000000001], [2.1653799999999976, 41.38848000000001], [2.1653799999999976, 41.38956000000001], [2.1642999999999977, 41.38956000000001], [2.1642999999999977, 41.38848000000001]]]}, "properties": {"height": 24.0, "name": ""}}, {"type": "Feature", "geometry": {"type": "Polygon", "coordinates": [[[2.1655599999999975, 41.38848000000001], [2.1666399999999975, 41.38848000000001], [2.1666399999999975, 41.38956000000001], [2.1655599999999975, 41.38956000000001], [2.1655599999999975, 41.38848000000001]]]}, "properties": {"height": 18.0, "name": ""}}, {"type": "Feature", "geometry": {"type": "Polygon", "coordinates": [[[2.1668199999999973, 41.38848000000001], [2.1678999999999973, 41.38848000000001], [2.1678999999999973, 41.38956000000001], [2.1668199999999973, 41.38956000000001], [2.1668199999999973, 41.38848000000001]]]}, "properties": {"height": 18.0, "name": ""}}, {"type": "Feature", "geometry": {"type": "Polygon", "coordinates": [[[2.168079999999997, 41.38848000000001], [2.169159999999997, 41.38848000000001], [2.169159999999997, 41.38956000000001], [2.168079999999997, 41.38956000000001], [2.168079999999997, 41.38848000000001]]]}, "properties": {"height": 18.0, "name": ""}}, {"type": "Feature", "geometry": {"type": "Polygon", "coordinates": [[[2.14918, 41.38974000000001], [2.15026, 41.38974000000001], [2.15026, 41.39082000000001], [2.14918, 41.39082000000001], [2.14918, 41.38974000000001]]]}, "properties": {"height": 24.0, "name": ""}}, {"type": "Feature", "geometry": {"type": "Polygon", "coordinates": [[[2.1504399999999997, 41.38974000000001], [2.1515199999999997, 41.38974000000001], [2.1515199999999997, 41.39082000000001], [2.1504399999999997, 41.39082000000001], [2.1504399999999997, 41.38974000000001]]]}, "properties": {"height": 18.0, "name": ""}}, {"type": "Feature", "geometry": {"type": "Polygon", "coordinates": [[[2.1516999999999995, 41.38974000000001], [2.1527799999999995, 41.38974000000001], [2.1527799999999995, 41.39082000000001], [2.1516999999999995, 41.39082000000001], [2.1516999999999995, 41.38974000000001]]]}, "properties": {"height": 21.0, "name": ""}}, {"type": "Feature", "geometry": {"type": "Polygon", "coordinates": [[[2.1529599999999993, 41.38974000000001], [2.1540399999999993, 41.38974000000001], [2.1540399999999993, 41.39082000000001], [2.1529599999999993, 41.39082000000001], [2.1529599999999993, 41.38974000000001]]]}, "properties": {"height": 24.0, "name": ""}}, {"type": "Feature", "geometry": {"type": "Polygon", "coordinates": [[[2.154219999999999, 41.38974000000001], [2.155299999999999, 41.38974000000001], [2.155299999999999, 41.39082000000001], [2.154219999999999, 41.39082000000001], [2.154219999999999, 41.38974000000001]]]}, "properties": {"height": 24.0, "name": ""}}, {"type": "Feature", "geometry": {"type": "Polygon", "coordinates": [[[2.155479999999999, 41.38974000000001], [2.156559999999999, 41.38974000000001], [2.156559999999999, 41.39082000000001], [2.155479999999999, 41.39082000000001], [2.155479999999999, 41.38974000000001]]]}, "properties": {"height": 21.0, "name": ""}}, {"type": "Feature", "geometry": {"type": "Polygon", "coordinates": [[[2.1567399999999988, 41.38974000000001], [2.1578199999999987, 41.38974000000001], [2.1578199999999987, 41.39082000000001], [2.1567399999999988, 41.39082000000001], [2.1567399999999988, 41.38974000000001]]]}, "properties": {"height": 18.0, "name": ""}}, {"type": "Feature", "geometry": {"type": "Polygon", "coordinates": [[[2.1579999999999986, 41.38974000000001], [2.1590799999999986, 41.38974000000001], [2.1590799999999986, 41.39082000000001], [2.1579999999999986, 41.39082000000001], [2.1579999999999986, 41.38974000000001]]]}, "properties": {"height": 21.0, "name": ""}}, {"type": "Feature", "geometry": {"type": "Polygon", "coordinates": [[[2.1592599999999984, 41.38974000000001], [2.1603399999999984, 41.38974000000001], [2.1603399999999984, 41.39082000000001], [2.1592599999999984, 41.39082000000001], [2.1592599999999984, 41.38974000000001]]]}, "properties": {"height": 21.0, "name": ""}}, {"type": "Feature", "geometry": {"type": "Polygon", "coordinates": [[[2.160519999999998, 41.38974000000001], [2.161599999999998, 41.38974000000001], [2.161599999999998, 41.39082000000001], [2.160519999999998, 41.39082000000001], [2.160519999999998, 41.38974000000001]]]}, "properties": {"height": 21.0, "name": ""}}, {"type": "Feature", "geometry": {"type": "Polygon", "coordinates": [[[2.161779999999998, 41.38974000000001], [2.162859999999998, 41.38974000000001], [2.162859999999998, 41.39082000000001], [2.161779999999998, 41.39082000000001], [2.161779999999998, 41.38974000000001]]]}, "properties": {"height": 21.0, "name": ""}}, {"type": "Feature", "geometry": {"type": "Polygon", "coordinates": [[[2.163039999999998, 41.38974000000001], [2.164119999999998, 41.38974000000001], [2.164119999999998, 41.39082000000001], [2.163039999999998, 41.39082000000001], [2.163039999999998, 41.38974000000001]]]}, "properties": {"height": 18.0, "name": ""}}, {"type": "Feature", "geometry": {"type": "Polygon", "coordinates": [[[2.1642999999999977, 41.38974000000001], [2.1653799999999976, 41.38974000000001], [2.1653799999999976, 41.39082000000001], [2.1642999999999977, 41.39082000000001], [2.1642999999999977, 41.38974000000001]]]}, "properties": {"height": 24.0, "name": ""}}, {"type": "Feature", "geometry": {"type": "Polygon", "coordinates": [[[2.1655599999999975, 41.38974000000001], [2.1666399999999975, 41.38974000000001], [2.1666399999999975, 41.39082000000001], [2.1655599999999975, 41.39082000000001], [2.1655599999999975, 41.38974000000001]]]}, "properties": {"height": 21.0, "name": ""}}, {"type": "Feature", "geometry": {"type": "Polygon", "coordinates": [[[2.1668199999999973, 41.38974000000001], [2.1678999999999973, 41.38974000000001], [2.1678999999999973, 41.39082000000001], [2.1668199999999973, 41.39082000000001], [2.1668199999999973, 41.38974000000001]]]}, "properties": {"height": 24.0, "name": ""}}, {"type": "Feature", "geometry": {"type": "Polygon", "coordinates": [[[2.168079999999997, 41.38974000000001], [2.169159999999997, 41.38974000000001], [2.169159999999997, 41.39082000000001], [2.168079999999997, 41.39082000000001], [2.168079999999997, 41.38974000000001]]]}, "properties": {"height": 18.0, "name": ""}}, {"type": "Feature", "geometry": {"type": "Polygon", "coordinates": [[[2.14918, 41.39100000000001], [2.15026, 41.39100000000001], [2.15026, 41.392080000000014], [2.14918, 41.392080000000014], [2.14918, 41.39100000000001]]]}, "properties": {"height": 24.0, "name": ""}}, {"type": "Feature", "geometry": {"type": "Polygon", "coordinates": [[[2.1504399999999997, 41.39100000000001], [2.1515199999999997, 41.39100000000001], [2.1515199999999997, 41.392080000000014], [2.1504399999999997, 41.392080000000014], [2.1504399999999997, 41.39100000000001]]]}, "properties": {"height": 21.0, "name": ""}}, {"type": "Feature", "geometry": {"type": "Polygon", "coordinates": [[[2.1516999999999995, 41.39100000000001], [2.1527799999999995, 41.39100000000001], [2.1527799999999995, 41.392080000000014], [2.1516999999999995, 41.392080000000014], [2.1516999999999995, 41.39100000000001]]]}, "properties": {"height": 18.0, "name": ""}}, {"type": "Feature", "geometry": {"type": "Polygon", "coordinates": [[[2.1529599999999993, 41.39100000000001], [2.1540399999999993, 41.39100000000001], [2.1540399999999993, 41.392080000000014], [2.1529599999999993, 41.392080000000014], [2.1529599999999993, 41.39100000000001]]]}, "properties": {"height": 21.0, "name": ""}}, {"type": "Feature", "geometry": {"type": "Polygon", "coordinates": [[[2.154219999999999, 41.39100000000001], [2.155299999999999, 41.39100000000001], [2.155299999999999, 41.392080000000014], [2.154219999999999, 41.392080000000014], [2.154219999999999, 41.39100000000001]]]}, "properties": {"height": 21.0, "name": ""}}, {"type": "Feature", "geometry": {"type": "Polygon", "coordinates": [[[2.155479999999999, 41.39100000000001], [2.156559999999999, 41.39100000000001], [2.156559999999999, 41.392080000000014], [2.155479999999999, 41.392080000000014], [2.155479999999999, 41.39100000000001]]]}, "properties": {"height": 21.0, "name": ""}}, {"type": "Feature", "geometry": {"type": "Polygon", "coordinates": [[[2.1567399999999988, 41.39100000000001], [2.1578199999999987, 41.39100000000001], [2.1578199999999987, 41.392080000000014], [2.1567399999999988, 41.392080000000014], [2.1567399999999988, 41.39100000000001]]]}, "properties": {"height": 24.0, "name": ""}}, {"type": "Feature", "geometry": {"type": "Polygon", "coordinates": [[[2.1579999999999986, 41.39100000000001], [2.1590799999999986, 41.39100000000001], [2.1590799999999986, 41.392080000000014], [2.1579999999999986, 41.392080000000014], [2.1579999999999986, 41.39100000000001]]]}, "properties": {"height": 18.0, "name": ""}}, {"type": "Feature", "geometry": {"type": "Polygon", "coordinates": [[[2.1592599999999984, 41.39100000000001], [2.1603399999999984, 41.39100000000001], [2.1603399999999984, 41.392080000000014], [2.1592599999999984, 41.392080000000014], [2.1592599999999984, 41.39100000000001]]]}, "properties": {"height": 24.0, "name": ""}}, {"type": "Feature", "geometry": {"type": "Polygon", "coordinates": [[[2.160519999999998, 41.39100000000001], [2.161599999999998, 41.39100000000001], [2.161599999999998, 41.392080000000014], [2.160519999999998, 41.392080000000014], [2.160519999999998, 41.39100000000001]]]}, "properties": {"height": 18.0, "name": ""}}, {"type": "Feature", "geometry": {"type": "Polygon", "coordinates": [[[2.161779999999998, 41.39100000000001], [2.162859999999998, 41.39100000000001], [2.162859999999998, 41.392080000000014], [2.161779999999998, 41.392080000000014], [2.161779999999998, 41.39100000000001]]]}, "properties": {"height": 24.0, "name": ""}}, {"type": "Feature", "geometry": {"type": "Polygon", "coordinates": [[[2.163039999999998, 41.39100000000001], [2.164119999999998, 41.39100000000001], [2.164119999999998, 41.392080000000014], [2.163039999999998, 41.392080000000014], [2.163039999999998, 41.39100000000001]]]}, "properties": {"height": 24.0, "name": ""}}, {"type": "Feature", "geometry": {"type": "Polygon", "coordinates": [[[2.1642999999999977, 41.39100000000001], [2.1653799999999976, 41.39100000000001], [2.1653799999999976, 41.392080000000014], [2.1642999999999977, 41.392080000000014], [2.1642999999999977, 41.39100000000001]]]}, "properties": {"height": 18.0, "name": ""}}, {"type": "Feature", "geometry": {"type": "Polygon", "coordinates": [[[2.1655599999999975, 41.39100000000001], [2.1666399999999975, 41.39100000000001], [2.1666399999999975, 41.392080000000014], [2.1655599999999975, 41.392080000000014], [2.1655599999999975, 41.39100000000001]]]}, "properties": {"height": 18.0, "name": ""}}, {"type": "Feature", "geometry": {"type": "Polygon", "coordinates": [[[2.1668199999999973, 41.39100000000001], [2.1678999999999973, 41.39100000000001], [2.1678999999999973, 41.392080000000014], [2.1668199999999973, 41.392080000000014], [2.1668199999999973, 41.39100000000001]]]}, "properties": {"height": 18.0, "name": ""}}, {"type": "Feature", "geometry": {"type": "Polygon", "coordinates": [[[2.168079999999997, 41.39100000000001], [2.169159999999997, 41.39100000000001], [2.169159999999997, 41.392080000000014], [2.168079999999997, 41.392080000000014], [2.168079999999997, 41.39100000000001]]]}, "properties": {"height": 21.0, "name": ""}}, {"type": "Feature", "geometry": {"type": "Polygon", "coordinates": [[[2.14918, 41.392260000000014], [2.15026, 41.392260000000014], [2.15026, 41.393340000000016], [2.14918, 41.393340000000016], [2.14918, 41.392260000000014]]]}, "properties": {"height": 18.0, "name": ""}}, {"type": "Feature", "geometry": {"type": "Polygon", "coordinates": [[[2.1504399999999997, 41.392260000000014], [2.1515199999999997, 41.392260000000014], [2.1515199999999997, 41.393340000000016], [2.1504399999999997, 41.393340000000016], [2.1504399999999997, 41.392260000000014]]]}, "properties": {"height": 24.0, "name": ""}}, {"type": "Feature", "geometry": {"type": "Polygon", "coordinates": [[[2.1516999999999995, 41.392260000000014], [2.1527799999999995, 41.392260000000014], [2.1527799999999995, 41.393340000000016], [2.1516999999999995, 41.393340000000016], [2.1516999999999995, 41.392260000000014]]]}, "properties": {"height": 18.0, "name": ""}}, {"type": "Feature", "geometry": {"type": "Polygon", "coordinates": [[[2.1529599999999993, 41.392260000000014], [2.1540399999999993, 41.392260000000014], [2.1540399999999993, 41.393340000000016], [2.1529599999999993, 41.393340000000016], [2.1529599999999993, 41.392260000000014]]]}, "properties": {"height": 24.0, "name": ""}}, {"type": "Feature", "geometry": {"type": "Polygon", "coordinates": [[[2.154219999999999, 41.392260000000014], [2.155299999999999, 41.392260000000014], [2.155299999999999, 41.393340000000016], [2.154219999999999, 41.393340000000016], [2.154219999999999, 41.392260000000014]]]}, "properties": {"height": 18.0, "name": ""}}, {"type": "Feature", "geometry": {"type": "Polygon", "coordinates": [[[2.155479999999999, 41.392260000000014], [2.156559999999999, 41.392260000000014], [2.156559999999999, 41.393340000000016], [2.155479999999999, 41.393340000000016], [2.155479999999999, 41.392260000000014]]]}, "properties": {"height": 21.0, "name": ""}}, {"type": "Feature", "geometry": {"type": "Polygon", "coordinates": [[[2.1567399999999988, 41.392260000000014], [2.1578199999999987, 41.392260000000014], [2.1578199999999987, 41.393340000000016], [2.1567399999999988, 41.393340000000016], [2.1567399999999988, 41.392260000000014]]]}, "properties": {"height": 18.0, "name": ""}}, {"type": "Feature", "geometry": {"type": "Polygon", "coordinates": [[[2.1579999999999986, 41.392260000000014], [2.1590799999999986, 41.392260000000014], [2.1590799999999986, 41.393340000000016], [2.1579999999999986, 41.393340000000016], [2.1579999999999986, 41.392260000000014]]]}, "properties": {"height": 24.0, "name": ""}}, {"type": "Feature", "geometry": {"type": "Polygon", "coordinates": [[[2.1592599999999984, 41.392260000000014], [2.1603399999999984, 41.392260000000014], [2.1603399999999984, 41.393340000000016], [2.1592599999999984, 41.393340000000016], [2.1592599999999984, 41.392260000000014]]]}, "properties": {"height": 21.0, "name": ""}}, {"type": "Feature", "geometry": {"type": "Polygon", "coordinates": [[[2.160519999999998, 41.392260000000014], [2.161599999999998, 41.392260000000014], [2.161599999999998, 41.393340000000016], [2.160519999999998, 41.393340000000016], [2.160519999999998, 41.392260000000014]]]}, "properties": {"height": 18.0, "name": ""}}, {"type": "Feature", "geometry": {"type": "Polygon", "coordinates": [[[2.161779999999998, 41.392260000000014], [2.162859999999998, 41.392260000000014], [2.162859999999998, 41.393340000000016], [2.161779999999998, 41.393340000000016], [2.161779999999998, 41.392260000000014]]]}, "properties": {"height": 18.0, "name": ""}}, {"type": "Feature", "geometry": {"type": "Polygon", "coordinates": [[[2.163039999999998, 41.392260000000014], [2.164119999999998, 41.392260000000014], [2.164119999999998, 41.393340000000016], [2.163039999999998, 41.393340000000016], [2.163039999999998, 41.392260000000014]]]}, "properties": {"height": 21.0, "name": ""}}, {"type": "Feature", "geometry": {"type": "Polygon", "coordinates": [[[2.1642999999999977, 41.392260000000014], [2.1653799999999976, 41.392260000000014], [2.1653799999999976, 41.393340000000016], [2.1642999999999977, 41.393340000000016], [2.1642999999999977, 41.392260000000014]]]}, "properties": {"height": 21.0, "name": ""}}, {"type": "Feature", "geometry": {"type": "Polygon", "coordinates": [[[2.1655599999999975, 41.392260000000014], [2.1666399999999975, 41.392260000000014], [2.1666399999999975, 41.393340000000016], [2.1655599999999975, 41.393340000000016], [2.1655599999999975, 41.392260000000014]]]}, "properties": {"height": 21.0, "name": ""}}, {"type": "Feature", "geometry": {"type": "Polygon", "coordinates": [[[2.1668199999999973, 41.392260000000014], [2.1678999999999973, 41.392260000000014], [2.1678999999999973, 41.393340000000016], [2.1668199999999973, 41.393340000000016], [2.1668199999999973, 41.392260000000014]]]}, "properties": {"height": 24.0, "name": ""}}, {"type": "Feature", "geometry": {"type": "Polygon", "coordinates": [[[2.168079999999997, 41.392260000000014], [2.169159999999997, 41.392260000000014], [2.169159999999997, 41.393340000000016], [2.168079999999997, 41.393340000000016], [2.168079999999997, 41.392260000000014]]]}, "properties": {"height": 18.0, "name": ""}}, {"type": "Feature", "geometry": {"type": "Polygon", "coordinates": [[[2.14918, 41.39352000000002], [2.15026, 41.39352000000002], [2.15026, 41.39460000000002], [2.14918, 41.39460000000002], [2.14918, 41.39352000000002]]]}, "properties": {"height": 18.0, "name": ""}}, {"type": "Feature", "geometry": {"type": "Polygon", "coordinates": [[[2.1504399999999997, 41.39352000000002], [2.1515199999999997, 41.39352000000002], [2.1515199999999997, 41.39460000000002], [2.1504399999999997, 41.39460000000002], [2.1504399999999997, 41.39352000000002]]]}, "properties": {"height": 21.0, "name": ""}}, {"type": "Feature", "geometry": {"type": "Polygon", "coordinates": [[[2.1516999999999995, 41.39352000000002], [2.1527799999999995, 41.39352000000002], [2.1527799999999995, 41.39460000000002], [2.1516999999999995, 41.39460000000002], [2.1516999999999995, 41.39352000000002]]]}, "properties": {"height": 18.0, "name": ""}}, {"type": "Feature", "geometry": {"type": "Polygon", "coordinates": [[[2.1529599999999993, 41.39352000000002], [2.1540399999999993, 41.39352000000002], [2.1540399999999993, 41.39460000000002], [2.1529599999999993, 41.39460000000002], [2.1529599999999993, 41.39352000000002]]]}, "properties": {"height": 24.0, "name": ""}}, {"type": "Feature", "geometry": {"type": "Polygon", "coordinates": [[[2.154219999999999, 41.39352000000002], [2.155299999999999, 41.39352000000002], [2.155299999999999, 41.39460000000002], [2.154219999999999, 41.39460000000002], [2.154219999999999, 41.39352000000002]]]}, "properties": {"height": 18.0, "name": ""}}, {"type": "Feature", "geometry": {"type": "Polygon", "coordinates": [[[2.155479999999999, 41.39352000000002], [2.156559999999999, 41.39352000000002], [2.156559999999999, 41.39460000000002], [2.155479999999999, 41.39460000000002], [2.155479999999999, 41.39352000000002]]]}, "properties": {"height": 24.0, "name": ""}}, {"type": "Feature", "geometry": {"type": "Polygon", "coordinates": [[[2.1567399999999988, 41.39352000000002], [2.1578199999999987, 41.39352000000002], [2.1578199999999987, 41.39460000000002], [2.1567399999999988, 41.39460000000002], [2.1567399999999988, 41.39352000000002]]]}, "properties": {"height": 21.0, "name": ""}}, {"type": "Feature", "geometry": {"type": "Polygon", "coordinates": [[[2.1579999999999986, 41.39352000000002], [2.1590799999999986, 41.39352000000002], [2.1590799999999986, 41.39460000000002], [2.1579999999999986, 41.39460000000002], [2.1579999999999986, 41.39352000000002]]]}, "properties": {"height": 24.0, "name": ""}}, {"type": "Feature", "geometry": {"type": "Polygon", "coordinates": [[[2.1592599999999984, 41.39352000000002], [2.1603399999999984, 41.39352000000002], [2.1603399999999984, 41.39460000000002], [2.1592599999999984, 41.39460000000002], [2.1592599999999984, 41.39352000000002]]]}, "properties": {"height": 21.0, "name": ""}}, {"type": "Feature", "geometry": {"type": "Polygon", "coordinates": [[[2.160519999999998, 41.39352000000002], [2.161599999999998, 41.39352000000002], [2.161599999999998, 41.39460000000002], [2.160519999999998, 41.39460000000002], [2.160519999999998, 41.39352000000002]]]}, "properties": {"height": 18.0, "name": ""}}, {"type": "Feature", "geometry": {"type": "Polygon", "coordinates": [[[2.161779999999998, 41.39352000000002], [2.162859999999998, 41.39352000000002], [2.162859999999998, 41.39460000000002], [2.161779999999998, 41.39460000000002], [2.161779999999998, 41.39352000000002]]]}, "properties": {"height": 18.0, "name": ""}}, {"type": "Feature", "geometry": {"type": "Polygon", "coordinates": [[[2.163039999999998, 41.39352000000002], [2.164119999999998, 41.39352000000002], [2.164119999999998, 41.39460000000002], [2.163039999999998, 41.39460000000002], [2.163039999999998, 41.39352000000002]]]}, "properties": {"height": 18.0, "name": ""}}, {"type": "Feature", "geometry": {"type": "Polygon", "coordinates": [[[2.1642999999999977, 41.39352000000002], [2.1653799999999976, 41.39352000000002], [2.1653799999999976, 41.39460000000002], [2.1642999999999977, 41.39460000000002], [2.1642999999999977, 41.39352000000002]]]}, "properties": {"height": 18.0, "name": ""}}, {"type": "Feature", "geometry": {"type": "Polygon", "coordinates": [[[2.1655599999999975, 41.39352000000002], [2.1666399999999975, 41.39352000000002], [2.1666399999999975, 41.39460000000002], [2.1655599999999975, 41.39460000000002], [2.1655599999999975, 41.39352000000002]]]}, "properties": {"height": 24.0, "name": ""}}, {"type": "Feature", "geometry": {"type": "Polygon", "coordinates": [[[2.1668199999999973, 41.39352000000002], [2.1678999999999973, 41.39352000000002], [2.1678999999999973, 41.39460000000002], [2.1668199999999973, 41.39460000000002], [2.1668199999999973, 41.39352000000002]]]}, "properties": {"height": 24.0, "name": ""}}, {"type": "Feature", "geometry": {"type": "Polygon", "coordinates": [[[2.168079999999997, 41.39352000000002], [2.169159999999997, 41.39352000000002], [2.169159999999997, 41.39460000000002], [2.168079999999997, 41.39460000000002], [2.168079999999997, 41.39352000000002]]]}, "properties": {"height": 21.0, "name": ""}}, {"type": "Feature", "geometry": {"type": "Polygon", "coordinates": [[[2.14918, 41.39478000000002], [2.15026, 41.39478000000002], [2.15026, 41.39586000000002], [2.14918, 41.39586000000002], [2.14918, 41.39478000000002]]]}, "properties": {"height": 21.0, "name": ""}}, {"type": "Feature", "geometry": {"type": "Polygon", "coordinates": [[[2.1504399999999997, 41.39478000000002], [2.1515199999999997, 41.39478000000002], [2.1515199999999997, 41.39586000000002], [2.1504399999999997, 41.39586000000002], [2.1504399999999997, 41.39478000000002]]]}, "properties": {"height": 18.0, "name": ""}}, {"type": "Feature", "geometry": {"type": "Polygon", "coordinates": [[[2.1516999999999995, 41.39478000000002], [2.1527799999999995, 41.39478000000002], [2.1527799999999995, 41.39586000000002], [2.1516999999999995, 41.39586000000002], [2.1516999999999995, 41.39478000000002]]]}, "properties": {"height": 24.0, "name": ""}}, {"type": "Feature", "geometry": {"type": "Polygon", "coordinates": [[[2.1529599999999993, 41.39478000000002], [2.1540399999999993, 41.39478000000002], [2.1540399999999993, 41.39586000000002], [2.1529599999999993, 41.39586000000002], [2.1529599999999993, 41.39478000000002]]]}, "properties": {"height": 18.0, "name": ""}}, {"type": "Feature", "geometry": {"type": "Polygon", "coordinates": [[[2.154219999999999, 41.39478000000002], [2.155299999999999, 41.39478000000002], [2.155299999999999, 41.39586000000002], [2.154219999999999, 41.39586000000002], [2.154219999999999, 41.39478000000002]]]}, "properties": {"height": 21.0, "name": ""}}, {"type": "Feature", "geometry": {"type": "Polygon", "coordinates": [[[2.155479999999999, 41.39478000000002], [2.156559999999999, 41.39478000000002], [2.156559999999999, 41.39586000000002], [2.155479999999999, 41.39586000000002], [2.155479999999999, 41.39478000000002]]]}, "properties": {"height": 21.0, "name": ""}}, {"type": "Feature", "geometry": {"type": "Polygon", "coordinates": [[[2.1567399999999988, 41.39478000000002], [2.1578199999999987, 41.39478000000002], [2.1578199999999987, 41.39586000000002], [2.1567399999999988, 41.39586000000002], [2.1567399999999988, 41.39478000000002]]]}, "properties": {"height": 18.0, "name": ""}}, {"type": "Feature", "geometry": {"type": "Polygon", "coordinates": [[[2.1579999999999986, 41.39478000000002], [2.1590799999999986, 41.39478000000002], [2.1590799999999986, 41.39586000000002], [2.1579999999999986, 41.39586000000002], [2.1579999999999986, 41.39478000000002]]]}, "properties": {"height": 18.0, "name": ""}}, {"type": "Feature", "geometry": {"type": "Polygon", "coordinates": [[[2.1592599999999984, 41.39478000000002], [2.1603399999999984, 41.39478000000002], [2.1603399999999984, 41.39586000000002], [2.1592599999999984, 41.39586000000002], [2.1592599999999984, 41.39478000000002]]]}, "properties": {"height": 24.0, "name": ""}}, {"type": "Feature", "geometry": {"type": "Polygon", "coordinates": [[[2.160519999999998, 41.39478000000002], [2.161599999999998, 41.39478000000002], [2.161599999999998, 41.39586000000002], [2.160519999999998, 41.39586000000002], [2.160519999999998, 41.39478000000002]]]}, "properties": {"height": 24.0, "name": ""}}, {"type": "Feature", "geometry": {"type": "Polygon", "coordinates": [[[2.161779999999998, 41.39478000000002], [2.162859999999998, 41.39478000000002], [2.162859999999998, 41.39586000000002], [2.161779999999998, 41.39586000000002], [2.161779999999998, 41.39478000000002]]]}, "properties": {"height": 24.0, "name": ""}}, {"type": "Feature", "geometry": {"type": "Polygon", "coordinates": [[[2.163039999999998, 41.39478000000002], [2.164119999999998, 41.39478000000002], [2.164119999999998, 41.39586000000002], [2.163039999999998, 41.39586000000002], [2.163039999999998, 41.39478000000002]]]}, "properties": {"height": 24.0, "name": ""}}, {"type": "Feature", "geometry": {"type": "Polygon", "coordinates": [[[2.1642999999999977, 41.39478000000002], [2.1653799999999976, 41.39478000000002], [2.1653799999999976, 41.39586000000002], [2.1642999999999977, 41.39586000000002], [2.1642999999999977, 41.39478000000002]]]}, "properties": {"height": 24.0, "name": ""}}, {"type": "Feature", "geometry": {"type": "Polygon", "coordinates": [[[2.1655599999999975, 41.39478000000002], [2.1666399999999975, 41.39478000000002], [2.1666399999999975, 41.39586000000002], [2.1655599999999975, 41.39586000000002], [2.1655599999999975, 41.39478000000002]]]}, "properties": {"height": 18.0, "name": ""}}, {"type": "Feature", "geometry": {"type": "Polygon", "coordinates": [[[2.1668199999999973, 41.39478000000002], [2.1678999999999973, 41.39478000000002], [2.1678999999999973, 41.39586000000002], [2.1668199999999973, 41.39586000000002], [2.1668199999999973, 41.39478000000002]]]}, "properties": {"height": 21.0, "name": ""}}, {"type": "Feature", "geometry": {"type": "Polygon", "coordinates": [[[2.168079999999997, 41.39478000000002], [2.169159999999997, 41.39478000000002], [2.169159999999997, 41.39586000000002], [2.168079999999997, 41.39586000000002], [2.168079999999997, 41.39478000000002]]]}, "properties": {"height": 24.0, "name": ""}}]}